 Automated mail xmit by MAIL_REQUEST, PID=   105359 Wed Nov 30 07:00:32 2016
++++++++++++++++++++++++++++++++ (part 1 of 1)  +++++++++++++++++++++++++++++++

*******************************************************************************
 Revised: Jul 31, 2013              Venus                               299 / 2

 GEOPHYSICAL DATA (updated 2014-Mar-13):
  Mean radius (km)      =   6051.8(4+-1)  Density (g cm^-3)     =  5.204
  Mass (10^23 kg )      =     48.685      Flattening, f         =
  Volume (x10^10 km^3)  =     92.843      Semi-major axis       =
  Sidereal rot. period  =   -243.0185 d   Rot. Rate (x10^5 s)   = -0.029924
  Mean solar day        =    116.7490 d   Polar gravity ms^-2   =
  Mom. of Inertia       =      0.33       Equ. gravity  ms^-2   =  8.870
  Core radius (km)      =  ~3200          Potential Love # k2   = ~0.25

  Grav spectral fact u  =      1.5        Topo. spectral fact t =  23
  Fig. offset (Rcf-Rcm) =      0.19+-01   Offset (lat./long.)   = 11/102 dg/dg
  GM (km^3 s^-2)        = 324858.63       Equatorial Radius, Re = 6051.893 km
  GM 1-sigma (km^3 s^-2)=    +-0.04       Mass ratio (Sun/Venus)= 408523.72

  Atmos. pressure (bar) =    90           Max. angular diam.    =   60.2"
  Mean Temperature (K)  =  735            Visual mag. V(1,0)    =   -4.40
  Geometric albedo      =    0.65         Obliquity to orbit    =  177.3 deg
  Sidereal orb. per.    =    0.61519726 y Orbit vel.  km/s      =   35.0214
  Sidereal orb. per.    =  224.70079922 d Escape vel. km/s      =   10.361
  Hill's sphere rad. Rp =  167.1          Planetary Solar Const = 2613.9 (Wm^2)
*******************************************************************************


*******************************************************************************
Ephemeris / MAIL_REQUEST Wed Nov 30 07:00:31 2016 Pasadena, USA  / Horizons
*******************************************************************************
Target body name: Venus (299)                     {source: DE431mx}
Center body name: Solar System Barycenter (0)     {source: DE431mx}
Center-site name: BODY CENTER
*******************************************************************************
Start time      : A.D. 2016-Nov-30 00:00:00.0000 TDB
Stop  time      : A.D. 2016-Dec-30 00:00:00.0000 TDB
Step-size       : 720 minutes
*******************************************************************************
Center geodetic : 0.00000000,0.00000000,0.0000000 {E-lon(deg),Lat(deg),Alt(km)}
Center cylindric: 0.00000000,0.00000000,0.0000000 {E-lon(deg),Dxy(km),Dz(km)}
Center radii    : (undefined)
Output units    : KM-S
Output type     : GEOMETRIC cartesian states
Output format   : 2x (pos. & vel. w/uncertainties: XYZ)
Reference frame : ICRF/J2000.0
Coordinate systm: Ecliptic and Mean Equinox of Reference Epoch
*******************************************************************************
JDTDB
 State   : X       Y        Z     VX       VY        VZ
 1-sigma : X_s     Y_s      Z_s   VX_s     VY_s      VZ_s
*******************************************************************************************************************************************************
$$SOE
2457749.500000000 = A.D. 2016-Dec-27 00:00:00.0000 TDB
 XYZ   :  8.128064305870175E+07   7.248909426174861E+07  -3.698496125703380E+06  -2.339663330057743E+01   2.602040190392174E+01   1.706597299970964E+00
 sigmas:                   n.a.                    n.a.                    n.a.                    n.a.                    n.a.                    n.a.
2457750.000000000 = A.D. 2016-Dec-27 12:00:00.0000 TDB
 XYZ   :  8.026204503700361E+07   7.360610957625042E+07  -3.624414244727612E+06  -2.375993139203070E+01   2.569241234533427E+01   1.723064305850997E+00
 sigmas:                   n.a.                    n.a.                    n.a.                    n.a.                    n.a.                    n.a.
2457750.500000000 = A.D. 2016-Dec-28 00:00:00.0000 TDB
 XYZ   :  7.922785041205135E+07   7.470884502482152E+07  -3.549628155244157E+06  -2.411868606450923E+01   2.535930729722755E+01   1.739198982782323E+00
 sigmas:                   n.a.                    n.a.                    n.a.                    n.a.                    n.a.                    n.a.
2457751.000000000 = A.D. 2016-Dec-28 12:00:00.0000 TDB
 XYZ   :  7.817825703501144E+07   7.579708096057355E+07  -3.474152286373951E+06  -2.447282451575030E+01   2.502114907917829E+01   1.754997984094787E+00
 sigmas:                   n.a.                    n.a.                    n.a.                    n.a.                    n.a.                    n.a.
2457751.500000000 = A.D. 2016-Dec-29 00:00:00.0000 TDB
 XYZ   :  7.711346588436414E+07   7.687060045181581E+07  -3.398001210474789E+06  -2.482227476766831E+01   2.467800107352836E+01   1.770458025253506E+00
 sigmas:                   n.a.                    n.a.                    n.a.                    n.a.                    n.a.                    n.a.
2457752.000000000 = A.D. 2016-Dec-29 12:00:00.0000 TDB
 XYZ   :  7.603368102995004E+07   7.792918932774764E+07  -3.321189640440002E+06  -2.516696568249750E+01   2.432992771520230E+01   1.785575884650317E+00
 sigmas:                   n.a.                    n.a.                    n.a.                    n.a.                    n.a.                    n.a.
2457752.500000000 = A.D. 2016-Dec-30 00:00:00.0000 TDB
 XYZ   :  7.493910959632136E+07   7.897263622370535E+07  -3.243732426963080E+06  -2.550682697883390E+01   2.397699448126173E+01   1.800348404385852E+00
 sigmas:                   n.a.                    n.a.                    n.a.                    n.a.                    n.a.                    n.a.
